{"type": "FeatureCollection", "features": [ {"type": "Feature", "properties": {"norad_id": 34376, "name": "IRIDIUM 33 DEB", "group": "iridium-33-debris", "lat": -85.05471041327229, "lon": -48.26022025782793, "alt_km": 709.7038156406015, "timestamp": "2025-12-26T21:25:53.394640+00:00", "meta": {"OBJECT_NAME": "IRIDIUM 33 DEB", "OBJECT_ID": "1997-051FU", "EPOCH": "2025-12-26T10:20:12.762528", "MEAN_MOTION": 14.62756045, "ECCENTRICITY": 0.00286269, "INCLINATION": 86.2983, "RA_OF_ASC_NODE": 0.3829, "ARG_OF_PERICENTER": 122.009, "MEAN_ANOMALY": 238.3909, "EPHEMERIS_TYPE": 0, "CLASSIFICATION_TYPE": "U", "NORAD_CAT_ID": 34376, "ELEMENT_SET_NO": 999, "REV_AT_EPOCH": 88207, "BSTAR": 0.0014942059, "MEAN_MOTION_DOT": 7.684e-05, "MEAN_MOTION_DDOT": 0}, "tle": {"line1": "1 34376U 97051FU  25360.43070327  .00007684  00000+0  14942-2 0  9993", "line2": "2 34376  86.2983   0.3829 0028626 122.0090 238.3909 14.62756045882070"}}, "geometry": {"type": "Point", "coordinates": [-48.26022025782793, -85.05471041327229]}}, {"type": "Feature", "properties": {"norad_id": 34486, "name": "IRIDIUM 33 DEB", "group": "iridium-33-debris", "lat": 31.05438573657761, "lon": 7.664626840178124, "alt_km": 568.9291897393969, "timestamp": "2025-12-26T21:25:53.394653+00:00", "meta": {"OBJECT_NAME": "IRIDIUM 33 DEB", "OBJECT_ID": "1997-051GB", "EPOCH": "2025-12-26T00:39:56.499264", "MEAN_MOTION": 14.96400313, "ECCENTRICITY": 0.00139183, "INCLINATION": 86.3935, "RA_OF_ASC_NODE": 5.8877, "ARG_OF_PERICENTER": 74.4824, "MEAN_ANOMALY": 338.8012, "EPHEMERIS_TYPE": 0, "CLASSIFICATION_TYPE": "U", "NORAD_CAT_ID": 34486, "ELEMENT_SET_NO": 999, "REV_AT_EPOCH": 89185, "BSTAR": 0.0021412617, "MEAN_MOTION_DOT": 0.00024383, "MEAN_MOTION_DDOT": 0}, "tle": {"line1": "1 34486U 97051GB  25360.02773726  .00024383  00000+0  21413-2 0  9999", "line2": "2 34486  86.3935   5.8877 0013918  74.4824 338.8012 14.96400313891854"}}, "geometry": {"type": "Point", "coordinates": [7.664626840178124, 31.05438573657761]}}, {"type": "Feature", "properties": {"norad_id": 34487, "name": "IRIDIUM 33 DEB", "group": "iridium-33-debris", "lat": -56.23496168686829, "lon": -168.22738743754755, "alt_km": 775.9193981570088, "timestamp": "2025-12-26T21:25:53.394664+00:00", "meta": {"OBJECT_NAME": "IRIDIUM 33 DEB", "OBJECT_ID": "1997-051GC", "EPOCH": "2025-12-26T00:37:21.163296", "MEAN_MOTION": 14.43232747, "ECCENTRICITY": 0.00332617, "INCLINATION": 86.3429, "RA_OF_ASC_NODE": 6.6563, "ARG_OF_PERICENTER": 87.1121, "MEAN_ANOMALY": 327.0907, "EPHEMERIS_TYPE": 0, "CLASSIFICATION_TYPE": "U", "NORAD_CAT_ID": 34487, "ELEMENT_SET_NO": 999, "REV_AT_EPOCH": 88440, "BSTAR": 0.00018559814, "MEAN_MOTION_DOT": 6.49e-06, "MEAN_MOTION_DDOT": 0}, "tle": {"line1": "1 34487U 97051GC  25360.02593939  .00000649  00000+0  18560-3 0  9995", "line2": "2 34487  86.3429   6.6563 0033261  87.1121 327.0907 14.43232747884400"}}, "geometry": {"type": "Point", "coordinates": [-168.22738743754755, -56.23496168686829]}}, {"type": "Feature", "properties": {"norad_id": 34488, "name": "IRIDIUM 33 DEB", "group": "iridium-33-debris", "lat": -1.4789931938023784, "lon": -61.30962873403352, "alt_km": 464.6419090973768, "timestamp": "2025-12-26T21:25:53.394674+00:00", "meta": {"OBJECT_NAME": "IRIDIUM 33 DEB", "OBJECT_ID": "1997-051GD", "EPOCH": "2025-12-25T20:22:16.973184", "MEAN_MOTION": 15.32823177, "ECCENTRICITY": 0.00085439, "INCLINATION": 86.325, "RA_OF_ASC_NODE": 299.3053, "ARG_OF_PERICENTER": 30.257, "MEAN_ANOMALY": 329.9171, "EPHEMERIS_TYPE": 0, "CLASSIFICATION_TYPE": "U", "NORAD_CAT_ID": 34488, "ELEMENT_SET_NO": 999, "REV_AT_EPOCH": 89440, "BSTAR": 0.0046585997, "MEAN_MOTION_DOT": 0.00150449, "MEAN_MOTION_DDOT": 0}, "tle": {"line1": "1 34488U 97051GD  25359.84880756  .00150449  00000+0  46586-2 0  9992", "line2": "2 34488  86.3250 299.3053 0008543  30.2570 329.9171 15.32823177894407"}}, "geometry": {"type": "Point", "coordinates": [-61.30962873403352, -1.4789931938023784]}}, {"type": "Feature", "properties": {"norad_id": 34492, "name": "IRIDIUM 33 DEB", "group": "iridium-33-debris", "lat": 18.954868283353772, "lon": 147.69356810056695, "alt_km": 689.0249948301762, "timestamp": "2025-12-26T21:25:53.394685+00:00", "meta": {"OBJECT_NAME": "IRIDIUM 33 DEB", "OBJECT_ID": "1997-051GH", "EPOCH": "2025-12-24T21:39:21.521088", "MEAN_MOTION": 14.25932668, "ECCENTRICITY": 0.0188786, "INCLINATION": 86.473, "RA_OF_ASC_NODE": 329.7114, "ARG_OF_PERICENTER": 198.6425, "MEAN_ANOMALY": 190.963, "EPHEMERIS_TYPE": 0, "CLASSIFICATION_TYPE": "U", "NORAD_CAT_ID": 34492, "ELEMENT_SET_NO": 999, "REV_AT_EPOCH": 85232, "BSTAR": 0.0029502, "MEAN_MOTION_DOT": 8.501e-05, "MEAN_MOTION_DDOT": 0}, "tle": {"line1": "1 34492U 97051GH  25358.90233242  .00008501  00000+0  29502-2 0  9995", "line2": "2 34492  86.4730 329.7114 0188786 198.6425 190.9630 14.25932668852326"}}, "geometry": {"type": "Point", "coordinates": [147.69356810056695, 18.954868283353772]}}, {"type": "Feature", "properties": {"norad_id": 34497, "name": "IRIDIUM 33 DEB", "group": "iridium-33-debris", "lat": 56.95168287774414, "lon": -139.38878168600792, "alt_km": 850.0036513116929, "timestamp": "2025-12-26T21:25:53.394696+00:00", "meta": {"OBJECT_NAME": "IRIDIUM 33 DEB", "OBJECT_ID": "1997-051GN", "EPOCH": "2025-12-22T21:33:03.136608", "MEAN_MOTION": 14.27482363, "ECCENTRICITY": 0.00780484, "INCLINATION": 86.2769, "RA_OF_ASC_NODE": 48.0617, "ARG_OF_PERICENTER": 306.2683, "MEAN_ANOMALY": 179.2919, "EPHEMERIS_TYPE": 0, "CLASSIFICATION_TYPE": "U", "NORAD_CAT_ID": 34497, "ELEMENT_SET_NO": 999, "REV_AT_EPOCH": 87028, "BSTAR": 0.00056228088, "MEAN_MOTION_DOT": 1.443e-05, "MEAN_MOTION_DDOT": 0}, "tle": {"line1": "1 34497U 97051GN  25356.89795297  .00001443  00000+0  56228-3 0  9993", "line2": "2 34497  86.2769  48.0617 0078048 306.2683 179.2919 14.27482363870281"}}, "geometry": {"type": "Point", "coordinates": [-139.38878168600792, 56.95168287774414]}}, {"type": "Feature", "properties": {"norad_id": 34508, "name": "IRIDIUM 33 DEB", "group": "iridium-33-debris", "lat": 58.940217239373126, "lon": -89.40798056567553, "alt_km": 710.4398809072709, "timestamp": "2025-12-26T21:25:53.394707+00:00", "meta": {"OBJECT_NAME": "IRIDIUM 33 DEB", "OBJECT_ID": "1997-051GZ", "EPOCH": "2025-12-26T07:31:07.370400", "MEAN_MOTION": 14.38527608, "ECCENTRICITY": 0.00666813, "INCLINATION": 86.3698, "RA_OF_ASC_NODE": 96.8885, "ARG_OF_PERICENTER": 129.474, "MEAN_ANOMALY": 231.2383, "EPHEMERIS_TYPE": 0, "CLASSIFICATION_TYPE": "U", "NORAD_CAT_ID": 34508, "ELEMENT_SET_NO": 999, "REV_AT_EPOCH": 87504, "BSTAR": 0.0012080759, "MEAN_MOTION_DOT": 3.808e-05, "MEAN_MOTION_DDOT": 0}, "tle": {"line1": "1 34508U 97051GZ  25360.31327975  .00003808  00000+0  12081-2 0  9997", "line2": "2 34508  86.3698  96.8885 0066681 129.4740 231.2383 14.38527608875040"}}, "geometry": {"type": "Point", "coordinates": [-89.40798056567553, 58.940217239373126]}}, {"type": "Feature", "properties": {"norad_id": 34521, "name": "IRIDIUM 33 DEB", "group": "iridium-33-debris", "lat": 52.08202038243025, "lon": -160.347583926546, "alt_km": 675.2394764567898, "timestamp": "2025-12-26T21:25:53.394718+00:00", "meta": {"OBJECT_NAME": "IRIDIUM 33 DEB", "OBJECT_ID": "1997-051HN", "EPOCH": "2025-12-26T12:38:41.835840", "MEAN_MOTION": 14.63480775, "ECCENTRICITY": 0.00033379, "INCLINATION": 86.379, "RA_OF_ASC_NODE": 24.4764, "ARG_OF_PERICENTER": 162.7334, "MEAN_ANOMALY": 197.3992, "EPHEMERIS_TYPE": 0, "CLASSIFICATION_TYPE": "U", "NORAD_CAT_ID": 34521, "ELEMENT_SET_NO": 999, "REV_AT_EPOCH": 88674, "BSTAR": 0.00091375723, "MEAN_MOTION_DOT": 4.754e-05, "MEAN_MOTION_DDOT": 0}, "tle": {"line1": "1 34521U 97051HN  25360.52687310  .00004754  00000+0  91376-3 0  9993", "line2": "2 34521  86.3790  24.4764 0003337 162.7334 197.3992 14.63480775886747"}}, "geometry": {"type": "Point", "coordinates": [-160.347583926546, 52.08202038243025]}}, {"type": "Feature", "properties": {"norad_id": 34525, "name": "IRIDIUM 33 DEB", "group": "iridium-33-debris", "lat": -16.45140255391575, "lon": 39.72836453101496, "alt_km": 752.8472875327852, "timestamp": "2025-12-26T21:25:53.394729+00:00", "meta": {"OBJECT_NAME": "IRIDIUM 33 DEB", "OBJECT_ID": "1997-051HS", "EPOCH": "2025-12-26T13:53:42.987264", "MEAN_MOTION": 14.42937761, "ECCENTRICITY": 0.00061467, "INCLINATION": 86.3717, "RA_OF_ASC_NODE": 40.936, "ARG_OF_PERICENTER": 62.9394, "MEAN_ANOMALY": 90.6558, "EPHEMERIS_TYPE": 0, "CLASSIFICATION_TYPE": "U", "NORAD_CAT_ID": 34525, "ELEMENT_SET_NO": 999, "REV_AT_EPOCH": 88287, "BSTAR": 0.00035936759, "MEAN_MOTION_DOT": 1.221e-05, "MEAN_MOTION_DDOT": 0}, "tle": {"line1": "1 34525U 97051HS  25360.57896976  .00001221  00000+0  35937-3 0  9999", "line2": "2 34525  86.3717  40.9360 0006146  62.9394  90.6558 14.42937761882875"}}, "geometry": {"type": "Point", "coordinates": [39.72836453101496, -16.45140255391575]}}, {"type": "Feature", "properties": {"norad_id": 34529, "name": "IRIDIUM 33 DEB", "group": "iridium-33-debris", "lat": 58.32245410788454, "lon": -156.5392835785095, "alt_km": 746.5545929835525, "timestamp": "2025-12-26T21:25:53.394739+00:00", "meta": {"OBJECT_NAME": "IRIDIUM 33 DEB", "OBJECT_ID": "1997-051HW", "EPOCH": "2025-12-26T14:12:06.789600", "MEAN_MOTION": 14.40627159, "ECCENTRICITY": 0.00063085, "INCLINATION": 86.3628, "RA_OF_ASC_NODE": 29.5057, "ARG_OF_PERICENTER": 138.1705, "MEAN_ANOMALY": 221.9977, "EPHEMERIS_TYPE": 0, "CLASSIFICATION_TYPE": "U", "NORAD_CAT_ID": 34529, "ELEMENT_SET_NO": 999, "REV_AT_EPOCH": 88341, "BSTAR": 0.00013424352, "MEAN_MOTION_DOT": 4.48e-06, "MEAN_MOTION_DDOT": 0}, "tle": {"line1": "1 34529U 97051HW  25360.59174525  .00000448  00000+0  13424-3 0  9991", "line2": "2 34529  86.3628  29.5057 0006308 138.1705 221.9977 14.40627159883418"}}, "geometry": {"type": "Point", "coordinates": [-156.5392835785095, 58.32245410788454]}}]}